[{"OBJECT_NAME":"STARLINK-3586","OBJECT_ID":"2022-017AD","EPOCH":"2026-03-09T23:32:02.658912","MEAN_MOTION":15.08837334,"ECCENTRICITY":0.00014579,"INCLINATION":53.2205,"RA_OF_ASC_NODE":348.0014,"ARG_OF_PERICENTER":127.8796,"MEAN_ANOMALY":232.2328,"EPHEMERIS_TYPE":0,"CLASSIFICATION_TYPE":"U","NORAD_CAT_ID":51795,"ELEMENT_SET_NO":999,"REV_AT_EPOCH":22396,"BSTAR":-0.00017054062,"MEAN_MOTION_DOT":-3.001e-5,"MEAN_MOTION_DDOT":0},{"OBJECT_NAME":"SL-24 R\/B","OBJECT_ID":"2014-070F","EPOCH":"2026-03-09T19:25:54.271488","MEAN_MOTION":13.15221204,"ECCENTRICITY":0.09488935,"INCLINATION":97.1704,"RA_OF_ASC_NODE":356.0555,"ARG_OF_PERICENTER":79.027,"MEAN_ANOMALY":291.5995,"EPHEMERIS_TYPE":0,"CLASSIFICATION_TYPE":"U","NORAD_CAT_ID":40303,"ELEMENT_SET_NO":999,"REV_AT_EPOCH":54356,"BSTAR":0.00013695568,"MEAN_MOTION_DOT":5.82e-6,"MEAN_MOTION_DDOT":0}]
